2022-023A               
1 51946U 22023A   26066.38437076  .00004303  00000+0  19500-3 0  9999
2 51946  63.4765 256.0240 0098533 341.4326  18.3199 15.18202647222269
STARLINK-31594          
1 59332U 24057N   26068.39651260 -.00006890  00000+0 -24084-3 0  9999
2 59332  43.0042 200.0261 0003285 297.6612  62.3906 15.27601530109667
